[{"OBJECT_NAME":"STARLINK-31637","OBJECT_ID":"2024-050E","EPOCH":"2026-03-09T13:50:31.422912","MEAN_MOTION":15.30201127,"ECCENTRICITY":0.0001201,"INCLINATION":53.1598,"RA_OF_ASC_NODE":181.3492,"ARG_OF_PERICENTER":111.3619,"MEAN_ANOMALY":248.751,"EPHEMERIS_TYPE":0,"CLASSIFICATION_TYPE":"U","NORAD_CAT_ID":59258,"ELEMENT_SET_NO":999,"REV_AT_EPOCH":11053,"BSTAR":-6.4335e-5,"MEAN_MOTION_DOT":-2.264e-5,"MEAN_MOTION_DDOT":0},{"OBJECT_NAME":"SL-3 R\/B","OBJECT_ID":"1982-027B","EPOCH":"2026-03-09T22:44:40.208640","MEAN_MOTION":15.28335844,"ECCENTRICITY":0.00065199,"INCLINATION":81.188,"RA_OF_ASC_NODE":37.4466,"ARG_OF_PERICENTER":276.581,"MEAN_ANOMALY":83.4683,"EPHEMERIS_TYPE":0,"CLASSIFICATION_TYPE":"U","NORAD_CAT_ID":13121,"ELEMENT_SET_NO":999,"REV_AT_EPOCH":39859,"BSTAR":0.00030526741,"MEAN_MOTION_DOT":8.453e-5,"MEAN_MOTION_DDOT":0}]
